GLOBALSTAR M023         
1 25621U 99004A   25323.20085797 -.00000045  00000+0  33017-3 0  9997
2 25621  52.0119 301.4183 0010323 108.0840 265.8240 12.62509530235310
GLOBALSTAR M040         
1 25622U 99004B   25323.66710530 -.00000056  00000+0  26661-3 0  9997
2 25622  51.9929 304.3825 0001181  24.5616 147.8084 12.62023339234882
GLOBALSTAR M036         
1 25623U 99004C   25323.39872729  .00000018  00000+0  14724-2 0  9990
2 25623  51.9940 191.2120 0010810 352.8715 177.7778 11.86617241197407
GLOBALSTAR M038         
1 25624U 99004D   25323.38312453 -.00000059  00000+0  29603-3 0  9992
2 25624  51.9996 344.6220 0001864  23.0105 350.4594 12.32536017221512
GLOBALSTAR M022         
1 25649U 99012A   25323.00247713 -.00000081  00000+0  64823-4 0  9992
2 25649  52.0030 230.0407 0003222 104.6338 268.4424 12.02506603195008
GLOBALSTAR M041         
1 25650U 99012B   25323.66116694 -.00000088  00000+0 -32566-4 0  9996
2 25650  51.9995 114.4388 0000436 231.4959 128.5838 11.96680958196894
GLOBALSTAR M046         
1 25651U 99012C   25323.54516016  .00000032  00000+0  13279-2 0  9991
2 25651  52.0020 173.0287 0001665 170.3408 207.5945 12.09415112202461
GLOBALSTAR M037         
1 25652U 99012D   25323.58206635 -.00000073  00000+0  17284-3 0  9996
2 25652  52.0015  70.8164 0002543 156.5996 216.6226 12.62455382230903
